EUTELSAT HOTBIRD 13F    
1 54048U 22134A   26196.86850242  .00000076  00000+0  00000+0 0  9993
2 54048   0.0597 284.0495 0002017  72.6460 262.6869  1.00270151 13663
LDPE-2                  
1 54219U 22144A   26196.47266913  .00000014  00000+0  00000+0 0  9999
2 54219   5.6794  63.4142 0002359 109.0609 160.7234  1.00543934 12126
EUTELSAT HOTBIRD 13G    
1 54225U 22146A   26196.86850242  .00000000  00000+0  00000+0 0  9990
2 54225   0.0181 232.9748 0001958 307.5730  78.8463  1.00269584  7753
ZHONGXING-19            
1 54230U 22148A   26196.80326251  .00000000  00000+0  00000+0 0  9990
2 54230   0.0205  60.0313 0003223  81.2674 244.7161  1.00270248 13669
GALAXY 31 (G-31)        
1 54243U 22153A   26196.88942816  .00000003  00000+0  00000+0 0  9992
2 54243   0.0132  88.5751 0001000  30.9418  13.3854  1.00271370  7424
GALAXY 32 (G-32)        
1 54244U 22153B   26196.82388928 -.00000184  00000+0  00000+0 0  9996
2 54244   0.0077  41.0430 0001317 359.1234  99.0870  1.00271405 13430
EUTELSAT 10B            
1 54259U 22157A   26196.84419396  .00000058  00000+0  00000+0 0  9991
2 54259   0.0585  93.6406 0001739  33.4745 120.4605  1.00272855 13315
GALAXY 35 (G-35)        
1 54741U 22170A   26196.89506152 -.00000173  00000+0  00000+0 0  9993
2 54741   0.0160  70.1971 0001783  46.4378  46.2025  1.00272330 13186
GALAXY 36 (G-36)        
1 54742U 22170B   26196.61074071 -.00000195  00000+0  00000+0 0  9998
2 54742   0.0054 142.8857 0002396 316.1422 325.2844  1.00270281 13055
METEOSAT-12 (MTG-I1)    
1 54743U 22170C   26196.88655817 -.00000019  00000+0  00000+0 0  9996
2 54743   0.7258  19.8591 0003835  81.8567 150.8405  1.00267890 13262
SHIJIAN-23 (SJ-23)      
1 55131U 23002A   26196.79097700 -.00000365  00000+0  00000+0 0  9998
2 55131   3.7889  77.9512 0003428 271.6051 357.5202  1.00076519 12794
APSTAR-6E               
1 55239U 23005A   26195.81576662  .00000000  00000+0  00000+0 0  9996
2 55239   0.0207 271.3385 0002136 293.8948 155.1380  1.00265114 18966
USA 342                 
1 55263U 23008A   26190.28864118  .00000000  00000+0  00000+0 0  9998
2 55263   0.0052 352.2306 0000262   7.3445  55.4773  1.00269378 12734
LDPE-3A                 
1 55264U 23008B   26196.94020781 -.00000298  00000+0  00000+0 0  9998
2 55264   2.4209  81.3073 0001528  76.8488 248.8767  0.99149853 12092
ELEKTRO-L 4             
1 55506U 23016A   26196.72396265 -.00000069  00000+0  00000+0 0  9991
2 55506   0.1191 278.0931 0001512 255.4146 186.4742  1.00270579 12614
AMAZONAS NEXUS          
1 55508U 23017A   26194.76278008 -.00000287  00000+0  00000+0 0  9992
2 55508   0.0356  42.7695 0004364  42.6416  59.8176  1.00268939  7317
ZHONGXING-26            
1 55686U 23023A   26196.86698139 -.00000365  00000+0  00000+0 0  9997
2 55686   0.0611  70.5099 0002963  15.8710 284.5491  1.00254114 12512
LUCH-5X (OLYMP-K 2)     
1 55841U 23031A   26196.49809188  .00000023  00000+0  00000+0 0  9996
2 55841   0.0319  96.7468 0000977 175.3046 262.5805  1.00271236 12224
GAOFEN-13 02            
1 55912U 23036A   26196.63249685 -.00000228  00000+0  00000+0 0  9994
2 55912   1.0278   4.6412 0003697 336.5562 328.2138  1.00274215 12376
SES-18                  
1 55970U 23038A   26195.96632969 -.00000110  00000+0  00000+0 0  9996
2 55970   0.0536 255.5543 0000841 312.6979 329.3569  1.00271627 12388
SES-19                  
1 55971U 23038B   26196.53035786  .00000078  00000+0  00000+0 0  9997
2 55971   0.0103   1.5399 0001517 111.9485 235.9011  1.00269536 12379
INTELSAT 40E (IS-40E)   
1 56174U 23052A   26196.92911543 -.00000185  00000+0  00000+0 0  9996
2 56174   0.0162  73.9833 0002222  70.9743  32.2902  1.00271721 12119
VIASAT-3 F1             
1 56370U 23060A   26195.82648433  .00000000  00000+0  00000+0 0  9991
2 56370   0.0149  26.8771 0000771  79.6667  34.7004  1.00270317 11713
ARCTURUS                
1 56371U 23060B   26196.93327444 -.00000351  00000+0  00000+0 0  9991
2 56371   2.8459  79.5837 0001035 131.7464 158.3014  1.00594375 11745
GS-1                    
1 56372U 23060C   26196.78861578 -.00000234  00000+0  00000+0 0  9996
2 56372   2.7966  79.4935 0003373 280.7224 306.6091  1.00266601  7827
BEIDOU-3 G4             
1 56564U 23066A   26196.94124782 -.00000291  00000+0  00000+0 0  9995
2 56564   0.4597 339.1777 0004907 186.7327 246.7843  1.00272241 11683
ARABSAT-7B (BADR-8)     
1 56757U 23075A   26195.49293264  .00000137  00000+0  00000+0 0  9998
2 56757   0.0743  30.7036 0003416 358.3138 106.7877  1.00271079 11397
NVS-01 (IRNSS-1J)       
1 56759U 23076A   26196.93916781 -.00000347  00000+0  00000+0 0  9991
2 56759   2.0996 243.0452 0003532   6.7382 151.4967  1.00264402 11407
NUSANTARA TIGA (SATRIA) 
1 57045U 23086A   26195.23152285 -.00000241  00000+0  00000+0 0  9997
2 57045   0.0345  12.3074 0002657 332.6277 176.5079  1.00272319 10036
H2SAT (HEINRICH HERTZ)  
1 57213U 23093A   26196.88655817 -.00000009  00000+0  00000+0 0  9995
2 57213   0.0255  98.6642 0000436  47.0977 107.8056  1.00270469 11204
SYRACUSE 4B             
1 57214U 23093B   26194.55973402  .00000000  00000+0  00000+0 0  9991
2 57214   0.0280  56.3015 0000448 204.3313 225.8578  1.00269537  7235
